CTC1_L_00160001-01
1 42035U 23616TY  26070.40833333  .00000000  00000+0  00000-0 0  9993
2 42035  55.0000   0.0000 0000000   0.0000   0.0000 13.98210060    17
CTC1_L_00160001-02
1 42036U 22221QO  26070.40833333  .00000000  00000+0  00000-0 0  9995
2 42036  55.0000   0.0000 0000000   0.0000  90.0000 13.98210060    17
CTC1_L_00160001-03
1 42037U 26392KZ  26070.40833333  .00000000  00000+0  00000-0 0  9999
2 42037  55.0000   0.0000 0000000   0.0000 180.0000 13.98210060    18
CTC1_L_00160001-04
1 42038U 25408HW  26070.40833333  .00000000  00000+0  00000-0 0  9997
2 42038  55.0000   0.0000 0000000   0.0000 270.0000 13.98210060    19
CTC1_L_00160002-01
1 42039U 26157KR  26070.40833333  .00000000  00000+0  00000-0 0  9990
2 42039  55.0000  12.0000 0000000   0.0000  12.0000 13.98210060    17
CTC1_L_00160002-02
1 42040U 26801BW  26070.40833333  .00000000  00000+0  00000-0 0  9998
2 42040  55.0000  12.0000 0000000   0.0000 102.0000 13.98210060    19
CTC1_L_00160002-03
1 42041U 24793KM  26070.40833333  .00000000  00000+0  00000-0 0  9997
2 42041  55.0000  12.0000 0000000   0.0000 192.0000 13.98210060    19
CTC1_L_00160002-04
1 42042U 23609FD  26070.40833333  .00000000  00000+0  00000-0 0  9993
2 42042  55.0000  12.0000 0000000   0.0000 282.0000 13.98210060    10
CTC1_L_00160003-01
1 42043U 25075QG  26070.40833333  .00000000  00000+0  00000-0 0  9993
2 42043  55.0000  24.0000 0000000   0.0000  24.0000 13.98210060    18
CTC1_L_00160003-02
1 42044U 22138XM  26070.40833333  .00000000  00000+0  00000-0 0  9991
2 42044  55.0000  24.0000 0000000   0.0000 114.0000 13.98210060    19
CTC1_L_00160003-03
1 42045U 25157BR  26070.40833333  .00000000  00000+0  00000-0 0  9996
2 42045  55.0000  24.0000 0000000   0.0000 204.0000 13.98210060    10
CTC1_L_00160003-04
1 42046U 24393BI  26070.40833333  .00000000  00000+0  00000-0 0  9998
2 42046  55.0000  24.0000 0000000   0.0000 294.0000 13.98210060    10
CTC1_L_00160004-01
1 42047U 26913WN  26070.40833333  .00000000  00000+0  00000-0 0  9999
2 42047  55.0000  36.0000 0000000   0.0000  36.0000 13.98210060    18
CTC1_L_00160004-02
1 42048U 24213DP  26070.40833333  .00000000  00000+0  00000-0 0  9991
2 42048  55.0000  36.0000 0000000   0.0000 126.0000 13.98210060    19
CTC1_L_00160004-03
1 42049U 26719LK  26070.40833333  .00000000  00000+0  00000-0 0  9995
2 42049  55.0000  36.0000 0000000   0.0000 216.0000 13.98210060    10
CTC1_L_00160004-04
1 42050U 24765EB  26070.40833333  .00000000  00000+0  00000-0 0  9996
2 42050  55.0000  36.0000 0000000   0.0000 306.0000 13.98210060    12
CTC1_L_00160005-01
1 42051U 24303UB  26070.40833333  .00000000  00000+0  00000-0 0  9995
2 42051  55.0000  48.0000 0000000   0.0000  48.0000 13.98210060    19
CTC1_L_00160005-02
1 42052U 26978KI  26070.40833333  .00000000  00000+0  00000-0 0  9996
2 42052  55.0000  48.0000 0000000   0.0000 138.0000 13.98210060    10
CTC1_L_00160005-03
1 42053U 26360PS  26070.40833333  .00000000  00000+0  00000-0 0  9992
2 42053  55.0000  48.0000 0000000   0.0000 228.0000 13.98210060    11
CTC1_L_00160005-04
1 42054U 24172V   26070.40833333  .00000000  00000+0  00000-0 0  9992
2 42054  55.0000  48.0000 0000000   0.0000 318.0000 13.98210060    12
CTC1_L_00160006-01
1 42055U 25860WP  26070.40833333  .00000000  00000+0  00000-0 0  9998
2 42055  55.0000  60.0000 0000000   0.0000  60.0000 13.98210060    11
CTC1_L_00160006-02
1 42056U 22328EA  26070.40833333  .00000000  00000+0  00000-0 0  9995
2 42056  55.0000  60.0000 0000000   0.0000 150.0000 13.98210060    12
CTC1_L_00160006-03
1 42057U 24650PX  26070.40833333  .00000000  00000+0  00000-0 0  9996
2 42057  55.0000  60.0000 0000000   0.0000 240.0000 13.98210060    13
CTC1_L_00160006-04
1 42058U 23719HR  26070.40833333  .00000000  00000+0  00000-0 0  9992
2 42058  55.0000  60.0000 0000000   0.0000 330.0000 13.98210060    14
CTC1_L_00160007-01
1 42059U 23221AV  26070.40833333  .00000000  00000+0  00000-0 0  9991
2 42059  55.0000  72.0000 0000000   0.0000  72.0000 13.98210060    11
CTC1_L_00160007-02
1 42060U 26157WD  26070.40833333  .00000000  00000+0  00000-0 0  9994
2 42060  55.0000  72.0000 0000000   0.0000 162.0000 13.98210060    13
CTC1_L_00160007-03
1 42061U 24047RJ  26070.40833333  .00000000  00000+0  00000-0 0  9991
2 42061  55.0000  72.0000 0000000   0.0000 252.0000 13.98210060    14
CTC1_L_00160007-04
1 42062U 24187VN  26070.40833333  .00000000  00000+0  00000-0 0  9997
2 42062  55.0000  72.0000 0000000   0.0000 342.0000 13.98210060    15
CTC1_L_00160008-01
1 42063U 26238MJ  26070.40833333  .00000000  00000+0  00000-0 0  9997
2 42063  55.0000  84.0000 0000000   0.0000  84.0000 13.98210060    12
CTC1_L_00160008-02
1 42064U 26697ZK  26070.40833333  .00000000  00000+0  00000-0 0  9997
2 42064  55.0000  84.0000 0000000   0.0000 174.0000 13.98210060    13
CTC1_L_00160008-03
1 42065U 25405SR  26070.40833333  .00000000  00000+0  00000-0 0  9994
2 42065  55.0000  84.0000 0000000   0.0000 264.0000 13.98210060    14
CTC1_L_00160008-04
1 42066U 25121VZ  26070.40833333  .00000000  00000+0  00000-0 0  9990
2 42066  55.0000  84.0000 0000000   0.0000 354.0000 13.98210060    15
CTC1_L_00160009-01
1 42067U 24717AT  26070.40833333  .00000000  00000+0  00000-0 0  9991
2 42067  55.0000  96.0000 0000000   0.0000  96.0000 13.98210060    12
CTC1_L_00160009-02
1 42068U 24756OT  26070.40833333  .00000000  00000+0  00000-0 0  9995
2 42068  55.0000  96.0000 0000000   0.0000 186.0000 13.98210060    13
CTC1_L_00160009-03
1 42069U 23558GA  26070.40833333  .00000000  00000+0  00000-0 0  9995
2 42069  55.0000  96.0000 0000000   0.0000 276.0000 13.98210060    14
CTC1_L_00160009-04
1 42070U 24483PI  26070.40833333  .00000000  00000+0  00000-0 0  9995
2 42070  55.0000  96.0000 0000000   0.0000   6.0000 13.98210060    17
CTC1_L_00160010-01
1 42071U 24237PL  26070.40833333  .00000000  00000+0  00000-0 0  9993
2 42071  55.0000 108.0000 0000000   0.0000 108.0000 13.98210060    15
CTC1_L_00160010-02
1 42072U 24844TD  26070.40833333  .00000000  00000+0  00000-0 0  9998
2 42072  55.0000 108.0000 0000000   0.0000 198.0000 13.98210060    15
CTC1_L_00160010-03
1 42073U 23582E   26070.40833333  .00000000  00000+0  00000-0 0  9997
2 42073  55.0000 108.0000 0000000   0.0000 288.0000 13.98210060    16
CTC1_L_00160010-04
1 42074U 24289KY  26070.40833333  .00000000  00000+0  00000-0 0  9993
2 42074  55.0000 108.0000 0000000   0.0000  18.0000 13.98210060    18
CTC1_L_00160011-01
1 42075U 26784SF  26070.40833333  .00000000  00000+0  00000-0 0  9996
2 42075  55.0000 120.0000 0000000   0.0000 120.0000 13.98210060    17
CTC1_L_00160011-02
1 42076U 22526EO  26070.40833333  .00000000  00000+0  00000-0 0  9997
2 42076  55.0000 120.0000 0000000   0.0000 210.0000 13.98210060    18
CTC1_L_00160011-03
1 42077U 25715UJ  26070.40833333  .00000000  00000+0  00000-0 0  9991
2 42077  55.0000 120.0000 0000000   0.0000 300.0000 13.98210060    19
CTC1_L_00160011-04
1 42078U 24118RY  26070.40833333  .00000000  00000+0  00000-0 0  9998
2 42078  55.0000 120.0000 0000000   0.0000  30.0000 13.98210060    10
CTC1_L_00160012-01
1 42079U 26047XZ  26070.40833333  .00000000  00000+0  00000-0 0  9992
2 42079  55.0000 132.0000 0000000   0.0000 132.0000 13.98210060    17
CTC1_L_00160012-02
1 42080U 24252DK  26070.40833333  .00000000  00000+0  00000-0 0  9990
2 42080  55.0000 132.0000 0000000   0.0000 222.0000 13.98210060    19
CTC1_L_00160012-03
1 42081U 26900VV  26070.40833333  .00000000  00000+0  00000-0 0  9993
2 42081  55.0000 132.0000 0000000   0.0000 312.0000 13.98210060    10
CTC1_L_00160012-04
1 42082U 25870PA  26070.40833333  .00000000  00000+0  00000-0 0  9999
2 42082  55.0000 132.0000 0000000   0.0000  42.0000 13.98210060    11
CTC1_L_00160013-01
1 42083U 25045KN  26070.40833333  .00000000  00000+0  00000-0 0  9994
2 42083  55.0000 144.0000 0000000   0.0000 144.0000 13.98210060    18
CTC1_L_00160013-02
1 42084U 25349UG  26070.40833333  .00000000  00000+0  00000-0 0  9992
2 42084  55.0000 144.0000 0000000   0.0000 234.0000 13.98210060    19
CTC1_L_00160013-03
1 42085U 23669LL  26070.40833333  .00000000  00000+0  00000-0 0  9996
2 42085  55.0000 144.0000 0000000   0.0000 324.0000 13.98210060    10
CTC1_L_00160013-04
1 42086U 22055RK  26070.40833333  .00000000  00000+0  00000-0 0  9995
2 42086  55.0000 144.0000 0000000   0.0000  54.0000 13.98210060    11
CTC1_L_00160014-01
1 42087U 22807NA  26070.40833333  .00000000  00000+0  00000-0 0  9991
2 42087  55.0000 156.0000 0000000   0.0000 156.0000 13.98210060    18
CTC1_L_00160014-02
1 42088U 26983KS  26070.40833333  .00000000  00000+0  00000-0 0  9991
2 42088  55.0000 156.0000 0000000   0.0000 246.0000 13.98210060    19
CTC1_L_00160014-03
1 42089U 25103RD  26070.40833333  .00000000  00000+0  00000-0 0  9995
2 42089  55.0000 156.0000 0000000   0.0000 336.0000 13.98210060    10
CTC1_L_00160014-04
1 42090U 22908IM  26070.40833333  .00000000  00000+0  00000-0 0  9997
2 42090  55.0000 156.0000 0000000   0.0000  66.0000 13.98210060    12
CTC1_L_00160015-01
1 42091U 26041ZB  26070.40833333  .00000000  00000+0  00000-0 0  9990
2 42091  55.0000 168.0000 0000000   0.0000 168.0000 13.98210060    19
CTC1_L_00160015-02
1 42092U 22906CX  26070.40833333  .00000000  00000+0  00000-0 0  9997
2 42092  55.0000 168.0000 0000000   0.0000 258.0000 13.98210060    10
CTC1_L_00160015-03
1 42093U 26412RU  26070.40833333  .00000000  00000+0  00000-0 0  9994
2 42093  55.0000 168.0000 0000000   0.0000 348.0000 13.98210060    11
CTC1_L_00160015-04
1 42094U 26226JA  26070.40833333  .00000000  00000+0  00000-0 0  9998
2 42094  55.0000 168.0000 0000000   0.0000  78.0000 13.98210060    12
CTC1_L_00160016-01
1 42095U 26824WE  26070.40833333  .00000000  00000+0  00000-0 0  9993
2 42095  55.0000 180.0000 0000000   0.0000 180.0000 13.98210060    11
CTC1_L_00160016-02
1 42096U 24302AI  26070.40833333  .00000000  00000+0  00000-0 0  9993
2 42096  55.0000 180.0000 0000000   0.0000 270.0000 13.98210060    12
